COMMENT,ORIGINATOR,NORAD_CAT_ID,OBJECT_NAME,OBJECT_TYPE,CLASSIFICATION_TYPE,INTLDES,EPOCH,EPOCH_MICROSECONDS,MEAN_MOTION,ECCENTRICITY,INCLINATION,RA_OF_ASC_NODE,ARG_OF_PERICENTER,MEAN_ANOMALY,EPHEMERIS_TYPE,ELEMENT_SET_NO,REV_AT_EPOCH,BSTAR,MEAN_MOTION_DOT,MEAN_MOTION_DDOT,FILE,TLE_LINE0,TLE_LINE1,TLE_LINE2,OBJECT_ID,OBJECT_NUMBER,SEMIMAJOR_AXIS,PERIOD,APOGEE,PERIGEE,DECAYED,date
GENERATED VIA SPACETRACK.ORG API,18 SPCS,48884,SPACEBEE-101,PAYLOAD,U,21059F,2023/4/21 2:42,717216,15.2763991,0.0007203,97.5871,246.5854,121.8324,238.3616,0,999,10065,0.0014091,0.00038178,0,3891529,0 SPACEBEE-101,1 48884U 21059F   23111.11264719  .00038178  00000-0  14091-2 0  9992,2 48884  97.5871 246.5854 0007203 121.8324 238.3616 15.27639910100652,2021-059F,48884,6861.007,94.263,487.814,477.93,0,
GENERATED VIA SPACETRACK.ORG API,18 SPCS,48884,SPACEBEE-101,PAYLOAD,U,21059F,2023/4/21 15:16,473248,15.27674535,0.0007195,97.5873,247.1184,120.114,240.0812,0,999,10073,0.0012574,0.00034076,0,3891716,0 SPACEBEE-101,1 48884U 21059F   23111.63666057  .00034076  00000-0  12574-2 0  9997,2 48884  97.5873 247.1184 0007195 120.1140 240.0812 15.27674535100734,2021-059F,48884,6860.903,94.261,487.704,477.832,0,
GENERATED VIA SPACETRACK.ORG API,18 SPCS,48884,SPACEBEE-101,PAYLOAD,U,21059F,2023/4/21 21:34,412352,15.27696078,0.0007166,97.5879,247.3852,119.3217,240.8739,0,999,10077,0.0013412,0.00036387,0,3891908,0 SPACEBEE-101,1 48884U 21059F   23111.89866218  .00036387  00000-0  13412-2 0  9995,2 48884  97.5879 247.3852 0007166 119.3217 240.8739 15.27696078100773,2021-059F,48884,6860.839,94.26,487.62,477.787,0,
GENERATED VIA SPACETRACK.ORG API,18 SPCS,48884,SPACEBEE-101,PAYLOAD,U,21059F,2023/4/21 21:34,412352,15.27696078,0.0007166,97.5879,247.3852,119.3217,240.8739,0,999,10077,0.0013412,0.00036387,0,3892071,0 SPACEBEE-101,1 48884U 21059F   23111.89866218  .00036387  00000-0  13412-2 0  9995,2 48884  97.5879 247.3852 0007166 119.3217 240.8739 15.27696078100773,2021-059F,48884,6860.839,94.26,487.62,477.787,0,
GENERATED VIA SPACETRACK.ORG API,18 SPCS,48884,SPACEBEE-101,PAYLOAD,U,21059F,2023/4/23 8:09,570112,15.27796824,0.0007,97.5879,248.8515,114.8392,245.3575,0,999,10099,0.0012002,0.00032636,0,3892550,0 SPACEBEE-101,1 48884U 21059F   23113.33961308  .00032636  00000-0  12002-2 0  9999,2 48884  97.5879 248.8515 0007000 114.8392 245.3575 15.27796824100998,2021-059F,48884,6860.537,94.253,487.204,477.6,0,
GENERATED VIA SPACETRACK.ORG API,18 SPCS,48884,SPACEBEE-101,PAYLOAD,U,21059F,2023/4/23 8:09,570112,15.27796824,0.0007,97.5879,248.8515,114.8392,245.3575,0,999,10099,0.0012002,0.00032636,0,3892688,0 SPACEBEE-101,1 48884U 21059F   23113.33961308  .00032636  00000-0  12002-2 0  9999,2 48884  97.5879 248.8515 0007000 114.8392 245.3575 15.27796824100998,2021-059F,48884,6860.537,94.253,487.204,477.6,0,
GENERATED VIA SPACETRACK.ORG API,18 SPCS,48884,SPACEBEE-101,PAYLOAD,U,21059F,2023/4/23 14:26,712960,15.27817887,0.0006987,97.5879,249.1179,113.9844,246.2127,0,999,10103,0.0013627,0.00037111,0,3892831,0 SPACEBEE-101,1 48884U 21059F   23113.60159390  .00037111  00000-0  13627-2 0  9996,2 48884  97.5879 249.1179 0006987 113.9844 246.2127 15.27817887101035,2021-059F,48884,6860.474,94.252,487.132,477.545,0,
GENERATED VIA SPACETRACK.ORG API,18 SPCS,48884,SPACEBEE-101,PAYLOAD,U,21059F,2023/4/24 7:43,119328,15.27953352,0.0006958,97.5877,249.8511,111.2077,248.9906,0,999,10114,0.0044418,0.00123036,0,3893148,0 SPACEBEE-101,1 48884U 21059F   23114.32201527  .00123036  00000-0  44418-2 0  9990,2 48884  97.5877 249.8511 0006958 111.2077 248.9906 15.27953352101141,2021-059F,48884,6860.068,94.244,486.707,477.16,0,
GENERATED VIA SPACETRACK.ORG API,18 SPCS,48884,SPACEBEE-101,PAYLOAD,U,21059F,2023/4/24 7:43,119328,15.27953352,0.0006958,97.5877,249.8511,111.2077,248.9906,0,999,10114,0.0044418,0.00123036,0,3893330,0 SPACEBEE-101,1 48884U 21059F   23114.32201527  .00123036  00000-0  44418-2 0  9990,2 48884  97.5877 249.8511 0006958 111.2077 248.9906 15.27953352101141,2021-059F,48884,6860.068,94.244,486.707,477.16,0,
GENERATED VIA SPACETRACK.ORG API,18 SPCS,48884,SPACEBEE-101,PAYLOAD,U,21059F,2023/4/25 2:35,472224,15.27976657,0.0006994,97.588,250.6513,108.6368,251.563,0,999,10126,0.0013448,0.00036798,0,3893651,0 SPACEBEE-101,1 48884U 21059F   23115.10788741  .00036798  00000-0  13448-2 0  9992,2 48884  97.5880 250.6513 0006994 108.6368 251.5630 15.27976657101260,2021-059F,48884,6859.999,94.242,486.662,477.066,0,
GENERATED VIA SPACETRACK.ORG API,18 SPCS,48884,SPACEBEE-101,PAYLOAD,U,21059F,2023/4/25 8:52,971232,15.2799453,0.0007013,97.5881,250.9178,107.7413,252.4592,0,999,10130,0.001189,0.00032526,0,3894092,0 SPACEBEE-101,1 48884U 21059F   23115.36983763  .00032526  00000-0  11890-2 0  9995,2 48884  97.5881 250.9178 0007013 107.7413 252.4592 15.27994530101307,2021-059F,48884,6859.945,94.241,486.621,476.999,0,
GENERATED VIA SPACETRACK.ORG API,18 SPCS,48884,SPACEBEE-101,PAYLOAD,U,21059F,2023/4/26 8:27,126176,15.28043244,0.0006982,97.5882,251.9183,104.6798,255.5215,0,999,10145,0.00097509,0.00026679,0,3894260,0 SPACEBEE-101,1 48884U 21059F   23116.35213109  .00026679  00000-0  97509-3 0  9999,2 48884  97.5882 251.9183 0006982 104.6798 255.5215 15.28043244101451,2021-059F,48884,6859.799,94.238,486.454,476.875,0,
GENERATED VIA SPACETRACK.ORG API,18 SPCS,48884,SPACEBEE-101,PAYLOAD,U,21059F,2023/4/26 14:44,672192,15.28057619,0.0006983,97.5878,252.1848,103.7966,256.405,0,999,10149,0.0010023,0.0002744,0,3894261,0 SPACEBEE-101,1 48884U 21059F   23116.61407028  .00027440  00000-0  10023-2 0  9995,2 48884  97.5878 252.1848 0006983 103.7966 256.4050 15.28057619101497,2021-059F,48884,6859.756,94.237,486.411,476.831,0,
GENERATED VIA SPACETRACK.ORG API,18 SPCS,48884,SPACEBEE-101,PAYLOAD,U,21059F,2023/4/27 8:01,262304,15.2810082,0.0006889,97.5878,252.9183,101.2982,258.9032,0,999,10160,0.0010923,0.0002996,0,3894751,0 SPACEBEE-101,1 48884U 21059F   23117.33438961  .00029960  00000-0  10923-2 0  9993,2 48884  97.5878 252.9183 0006889 101.2982 258.9032 15.28100820101606,2021-059F,48884,6859.627,94.235,486.218,476.766,0,
GENERATED VIA SPACETRACK.ORG API,18 SPCS,48884,SPACEBEE-101,PAYLOAD,U,21059F,2023/4/27 20:35,319616,15.2813816,0.0006883,97.5878,253.4517,99.382,260.8197,0,999,10168,0.0012427,0.00034154,0,3894810,0 SPACEBEE-101,1 48884U 21059F   23117.85824444  .00034154  00000-0  12427-2 0  9997,2 48884  97.5878 253.4517 0006883  99.3820 260.8197 15.28138160101685,2021-059F,48884,6859.515,94.232,486.102,476.659,0,
GENERATED VIA SPACETRACK.ORG API,18 SPCS,48884,SPACEBEE-101,PAYLOAD,U,21059F,2023/4/28 7:35,928608,15.28163857,0.0006854,97.5877,253.9188,97.6816,262.5201,0,999,10175,0.0010521,0.00028906,0,3895770,0 SPACEBEE-101,1 48884U 21059F   23118.31660797  .00028906  00000-0  10521-2 0  9999,2 48884  97.5877 253.9188 0006854  97.6816 262.5201 15.28163857101751,2021-059F,48884,6859.438,94.231,486.005,476.602,0,
GENERATED VIA SPACETRACK.ORG API,18 SPCS,48884,SPACEBEE-101,PAYLOAD,U,21059F,2023/4/29 4:01,588032,15.2821827,0.0006868,97.5876,254.7855,95.3498,264.8525,0,999,10188,0.0010938,0.00030109,0,3896116,0 SPACEBEE-101,1 48884U 21059F   23119.16783088  .00030109  00000-0  10938-2 0  9992,2 48884  97.5876 254.7855 0006868  95.3498 264.8525 15.28218270101884,2021-059F,48884,6859.276,94.227,485.852,476.43,0,
GENERATED VIA SPACETRACK.ORG API,18 SPCS,48884,SPACEBEE-101,PAYLOAD,U,21059F,2023/4/29 8:44,299008,15.2823132,0.0006842,97.5876,254.9856,94.6941,265.5079,0,999,10191,0.0010941,0.00030129,0,3896517,0 SPACEBEE-101,1 48884U 21059F   23119.36426272  .00030129  00000-0  10941-2 0  9999,2 48884  97.5876 254.9856 0006842  94.6941 265.5079 15.28231320101911,2021-059F,48884,6859.237,94.227,485.795,476.408,0,
GENERATED VIA SPACETRACK.ORG API,18 SPCS,48884,SPACEBEE-101,PAYLOAD,U,21059F,2023/4/30 8:18,696480,15.28294701,0.000675,97.5876,255.9859,91.4386,268.7626,0,999,10206,0.0010801,0.00029799,0,3897210,0 SPACEBEE-101,1 48884U 21059F   23120.34639695  .00029799  00000-0  10801-2 0  9990,2 48884  97.5876 255.9859 0006750  91.4386 268.7626 15.28294701102063,2021-059F,48884,6859.047,94.223,485.542,476.282,0,
GENERATED VIA SPACETRACK.ORG API,18 SPCS,48884,SPACEBEE-101,PAYLOAD,U,21059F,2023/4/30 14:35,493600,15.28310505,0.0006737,97.5876,256.2527,90.7128,269.4883,0,999,10210,0.0010777,0.00029746,0,3897442,0 SPACEBEE-101,1 48884U 21059F   23120.60829275  .00029746  00000-0  10777-2 0  9998,2 48884  97.5876 256.2527 0006737  90.7128 269.4883 15.28310505102109,2021-059F,48884,6859,94.222,485.485,476.244,0,
